<?xml version="1.0" encoding="UTF-8"?>
<seiscomp xmlns="http://geofon.gfz-potsdam.de/ns/seiscomp3-schema/0.10" version="0.10">
  <EventParameters>
    <pick publicID="20180822.215340.60-AIC-NZ.CMWZ.10.EHZ">
      <time>
        <value>2018-08-22T21:53:40.600005Z</value>
      </time>
      <waveformID networkCode="NZ" stationCode="CMWZ" locationCode="10" channelCode="EHZ"/>
      <filterID>BW(4,2.5,15)</filterID>
      <methodID>AIC</methodID>
      <phaseHint>P</phaseHint>
      <evaluationMode>automatic</evaluationMode>
      <creationInfo>
        <agencyID>WEL(GNS_Test)</agencyID>
        <author>scautopick@eceqp02.geonet.org.nz</author>
        <creationTime>2018-08-22T21:53:55.230123Z</creationTime>
      </creationInfo>
    </pick>
    <pick publicID="20180822.215342.31-AIC-NZ.BSWZ.10.EHZ">
      <time>
        <value>2018-08-22T21:53:42.310005Z</value>
      </time>
      <waveformID networkCode="NZ" stationCode="BSWZ" locationCode="10" channelCode="EHZ"/>
      <filterID>BW(4,2.5,15)</filterID>
      <methodID>AIC</methodID>
      <phaseHint>P</phaseHint>
      <evaluationMode>automatic</evaluationMode>
      <creationInfo>
        <agencyID>WEL(GNS_Test)</agencyID>
        <author>scautopick@eceqp02.geonet.org.nz</author>
        <creationTime>2018-08-22T21:53:56.233033Z</creationTime>
      </creationInfo>
    </pick>
    <pick publicID="20180822.215345.70-AIC-NZ.TUWZ.10.EHZ">
      <time>
        <value>2018-08-22T21:53:45.7Z</value>
      </time>
      <waveformID networkCode="NZ" stationCode="TUWZ" locationCode="10" channelCode="EHZ"/>
      <filterID>BW(4,2.5,15)</filterID>
      <methodID>AIC</methodID>
      <phaseHint>P</phaseHint>
      <evaluationMode>automatic</evaluationMode>
      <creationInfo>
        <agencyID>WEL(GNS_Test)</agencyID>
        <author>scautopick@eceqp02.geonet.org.nz</author>
        <creationTime>2018-08-22T21:54:00.246439Z</creationTime>
      </creationInfo>
    </pick>
    <pick publicID="20180822.215347.88-AIC-NZ.TCW.10.EHZ">
      <time>
        <value>2018-08-22T21:53:47.888394Z</value>
      </time>
      <waveformID networkCode="NZ" stationCode="TCW" locationCode="10" channelCode="EHZ"/>
      <filterID>BW(4,2.5,15)</filterID>
      <methodID>AIC</methodID>
      <phaseHint>P</phaseHint>
      <evaluationMode>automatic</evaluationMode>
      <creationInfo>
        <agencyID>WEL(GNS_Test)</agencyID>
        <author>scautopick@eceqp02.geonet.org.nz</author>
        <creationTime>2018-08-22T21:53:59.745256Z</creationTime>
      </creationInfo>
    </pick>
    <pick publicID="20180822.215350.33-AIC-NZ.BHW.10.HHZ">
      <time>
        <value>2018-08-22T21:53:50.338393Z</value>
      </time>
      <waveformID networkCode="NZ" stationCode="BHW" locationCode="10" channelCode="HHZ"/>
      <filterID>BW(4,2.5,15)</filterID>
      <methodID>AIC</methodID>
      <phaseHint>P</phaseHint>
      <evaluationMode>automatic</evaluationMode>
      <creationInfo>
        <agencyID>WEL(GNS_Test)</agencyID>
        <author>scautopick@eceqp02.geonet.org.nz</author>
        <creationTime>2018-08-22T21:54:09.778125Z</creationTime>
      </creationInfo>
    </pick>
    <pick publicID="20180822.215352.37-AIC-NZ.NNZ.10.HHZ">
      <time>
        <value>2018-08-22T21:53:52.378393Z</value>
      </time>
      <waveformID networkCode="NZ" stationCode="NNZ" locationCode="10" channelCode="HHZ"/>
      <filterID>BW(4,2.5,15)</filterID>
      <methodID>AIC</methodID>
      <phaseHint>P</phaseHint>
      <evaluationMode>automatic</evaluationMode>
      <creationInfo>
        <agencyID>WEL(GNS_Test)</agencyID>
        <author>scautopick@eceqp02.geonet.org.nz</author>
        <creationTime>2018-08-22T21:54:03.256501Z</creationTime>
      </creationInfo>
    </pick>
    <pick publicID="20180822.215354.24-AIC-NZ.KHZ.10.HHZ">
      <time>
        <value>2018-08-22T21:53:54.248393Z</value>
      </time>
      <waveformID networkCode="NZ" stationCode="KHZ" locationCode="10" channelCode="HHZ"/>
      <filterID>BW(4,2.5,15)</filterID>
      <methodID>AIC</methodID>
      <phaseHint>P</phaseHint>
      <evaluationMode>automatic</evaluationMode>
      <creationInfo>
        <agencyID>WEL(GNS_Test)</agencyID>
        <author>scautopick@eceqp02.geonet.org.nz</author>
        <creationTime>2018-08-22T21:54:05.261741Z</creationTime>
      </creationInfo>
    </pick>
    <pick publicID="20180822.215354.13-AIC-NZ.PLWZ.10.EHZ">
      <time>
        <value>2018-08-22T21:53:54.138393Z</value>
      </time>
      <waveformID networkCode="NZ" stationCode="PLWZ" locationCode="10" channelCode="EHZ"/>
      <filterID>BW(4,2.5,15)</filterID>
      <methodID>AIC</methodID>
      <phaseHint>P</phaseHint>
      <evaluationMode>automatic</evaluationMode>
      <creationInfo>
        <agencyID>WEL(GNS_Test)</agencyID>
        <author>scautopick@eceqp02.geonet.org.nz</author>
        <creationTime>2018-08-22T21:54:08.774598Z</creationTime>
      </creationInfo>
    </pick>
    <pick publicID="20180822.215355.04-AIC-NZ.MSWZ.10.EHZ">
      <time>
        <value>2018-08-22T21:53:55.043133Z</value>
      </time>
      <waveformID networkCode="NZ" stationCode="MSWZ" locationCode="10" channelCode="EHZ"/>
      <filterID>BW(4,2.5,15)</filterID>
      <methodID>AIC</methodID>
      <phaseHint>P</phaseHint>
      <evaluationMode>automatic</evaluationMode>
      <creationInfo>
        <agencyID>WEL(GNS_Test)</agencyID>
        <author>scautopick@eceqp02.geonet.org.nz</author>
        <creationTime>2018-08-22T21:54:05.764869Z</creationTime>
      </creationInfo>
    </pick>
    <pick publicID="20180822.215355.62-AIC-NZ.CAW.10.EHZ">
      <time>
        <value>2018-08-22T21:53:55.628394Z</value>
      </time>
      <waveformID networkCode="NZ" stationCode="CAW" locationCode="10" channelCode="EHZ"/>
      <filterID>BW(4,2.5,15)</filterID>
      <methodID>AIC</methodID>
      <phaseHint>P</phaseHint>
      <evaluationMode>automatic</evaluationMode>
      <creationInfo>
        <agencyID>WEL(GNS_Test)</agencyID>
        <author>scautopick@eceqp02.geonet.org.nz</author>
        <creationTime>2018-08-22T21:54:07.268082Z</creationTime>
      </creationInfo>
    </pick>
    <pick publicID="20180822.215355.23-AIC-NZ.DUWZ.10.EHZ">
      <time>
        <value>2018-08-22T21:53:55.238391Z</value>
      </time>
      <waveformID networkCode="NZ" stationCode="DUWZ" locationCode="10" channelCode="EHZ"/>
      <filterID>BW(4,2.5,15)</filterID>
      <methodID>AIC</methodID>
      <phaseHint>P</phaseHint>
      <evaluationMode>automatic</evaluationMode>
      <creationInfo>
        <agencyID>WEL(GNS_Test)</agencyID>
        <author>scautopick@eceqp02.geonet.org.nz</author>
        <creationTime>2018-08-22T21:54:06.770696Z</creationTime>
      </creationInfo>
    </pick>
    <pick publicID="20180822.215355.33-AIC-NZ.THZ.10.HHZ">
      <time>
        <value>2018-08-22T21:53:55.33313Z</value>
      </time>
      <waveformID networkCode="NZ" stationCode="THZ" locationCode="10" channelCode="HHZ"/>
      <filterID>BW(4,2.5,15)</filterID>
      <methodID>AIC</methodID>
      <phaseHint>P</phaseHint>
      <evaluationMode>automatic</evaluationMode>
      <creationInfo>
        <agencyID>WEL(GNS_Test)</agencyID>
        <author>scautopick@eceqp02.geonet.org.nz</author>
        <creationTime>2018-08-22T21:54:10.278787Z</creationTime>
      </creationInfo>
    </pick>
    <pick publicID="20180822.215356.93-AIC-NZ.PAWZ.10.EHZ">
      <time>
        <value>2018-08-22T21:53:56.93313Z</value>
      </time>
      <waveformID networkCode="NZ" stationCode="PAWZ" locationCode="10" channelCode="EHZ"/>
      <filterID>BW(4,2.5,15)</filterID>
      <methodID>AIC</methodID>
      <phaseHint>P</phaseHint>
      <evaluationMode>automatic</evaluationMode>
      <creationInfo>
        <agencyID>WEL(GNS_Test)</agencyID>
        <author>scautopick@eceqp02.geonet.org.nz</author>
        <creationTime>2018-08-22T21:54:07.771758Z</creationTime>
      </creationInfo>
    </pick>
    <pick publicID="20180822.215357.12-AIC-NZ.KIW.10.EHZ">
      <time>
        <value>2018-08-22T21:53:57.128394Z</value>
      </time>
      <waveformID networkCode="NZ" stationCode="KIW" locationCode="10" channelCode="EHZ"/>
      <filterID>BW(4,2.5,15)</filterID>
      <methodID>AIC</methodID>
      <phaseHint>P</phaseHint>
      <evaluationMode>automatic</evaluationMode>
      <creationInfo>
        <agencyID>WEL(GNS_Test)</agencyID>
        <author>scautopick@eceqp02.geonet.org.nz</author>
        <creationTime>2018-08-22T21:54:10.781727Z</creationTime>
      </creationInfo>
    </pick>
    <pick publicID="20180822.215358.68-AIC-NZ.MRNZ.10.EHZ">
      <time>
        <value>2018-08-22T21:53:58.68313Z</value>
      </time>
      <waveformID networkCode="NZ" stationCode="MRNZ" locationCode="10" channelCode="EHZ"/>
      <filterID>BW(4,2.5,15)</filterID>
      <methodID>AIC</methodID>
      <phaseHint>P</phaseHint>
      <evaluationMode>automatic</evaluationMode>
      <creationInfo>
        <agencyID>WEL(GNS_Test)</agencyID>
        <author>scautopick@eceqp02.geonet.org.nz</author>
        <creationTime>2018-08-22T21:54:14.794472Z</creationTime>
      </creationInfo>
    </pick>
    <pick publicID="20180822.215358.61-AIC-NZ.MTW.10.EHZ">
      <time>
        <value>2018-08-22T21:53:58.618396Z</value>
      </time>
      <waveformID networkCode="NZ" stationCode="MTW" locationCode="10" channelCode="EHZ"/>
      <filterID>BW(4,2.5,15)</filterID>
      <methodID>AIC</methodID>
      <phaseHint>P</phaseHint>
      <evaluationMode>automatic</evaluationMode>
      <creationInfo>
        <agencyID>WEL(GNS_Test)</agencyID>
        <author>scautopick@eceqp02.geonet.org.nz</author>
        <creationTime>2018-08-22T21:54:14.798254Z</creationTime>
      </creationInfo>
    </pick>
    <pick publicID="20180822.215359.46-AIC-NZ.OGWZ.10.EHZ">
      <time>
        <value>2018-08-22T21:53:59.468391Z</value>
      </time>
      <waveformID networkCode="NZ" stationCode="OGWZ" locationCode="10" channelCode="EHZ"/>
      <filterID>BW(4,2.5,15)</filterID>
      <methodID>AIC</methodID>
      <phaseHint>P</phaseHint>
      <evaluationMode>automatic</evaluationMode>
      <creationInfo>
        <agencyID>WEL(GNS_Test)</agencyID>
        <author>scautopick@eceqp02.geonet.org.nz</author>
        <creationTime>2018-08-22T21:54:15.798602Z</creationTime>
      </creationInfo>
    </pick>
    <pick publicID="20180822.215404.22-AIC-NZ.GVZ.10.HHZ">
      <time>
        <value>2018-08-22T21:54:04.228391Z</value>
      </time>
      <waveformID networkCode="NZ" stationCode="GVZ" locationCode="10" channelCode="HHZ"/>
      <filterID>BW(4,2.5,15)</filterID>
      <methodID>AIC</methodID>
      <phaseHint>P</phaseHint>
      <evaluationMode>automatic</evaluationMode>
      <creationInfo>
        <agencyID>WEL(GNS_Test)</agencyID>
        <author>scautopick@eceqp02.geonet.org.nz</author>
        <creationTime>2018-08-22T21:54:20.311507Z</creationTime>
      </creationInfo>
    </pick>
    <pick publicID="20180822.215405.48-AIC-NZ.QRZ.10.HHZ">
      <time>
        <value>2018-08-22T21:54:05.488391Z</value>
      </time>
      <waveformID networkCode="NZ" stationCode="QRZ" locationCode="10" channelCode="HHZ"/>
      <filterID>BW(4,2.5,15)</filterID>
      <methodID>AIC</methodID>
      <phaseHint>P</phaseHint>
      <evaluationMode>automatic</evaluationMode>
      <creationInfo>
        <agencyID>WEL(GNS_Test)</agencyID>
        <author>scautopick@eceqp02.geonet.org.nz</author>
        <creationTime>2018-08-22T21:54:19.30902Z</creationTime>
      </creationInfo>
    </pick>
    <pick publicID="20180822.215403.75-AIC-NZ.MRZ.10.HHZ">
      <time>
        <value>2018-08-22T21:54:03.758393Z</value>
      </time>
      <waveformID networkCode="NZ" stationCode="MRZ" locationCode="10" channelCode="HHZ"/>
      <filterID>BW(4,2.5,15)</filterID>
      <methodID>AIC</methodID>
      <phaseHint>P</phaseHint>
      <evaluationMode>automatic</evaluationMode>
      <creationInfo>
        <agencyID>WEL(GNS_Test)</agencyID>
        <author>scautopick@eceqp02.geonet.org.nz</author>
        <creationTime>2018-08-22T21:54:15.298203Z</creationTime>
      </creationInfo>
    </pick>
    <pick publicID="20180822.215409.25-AIC-NZ.DSZ.10.HHZ">
      <time>
        <value>2018-08-22T21:54:09.253126Z</value>
      </time>
      <waveformID networkCode="NZ" stationCode="DSZ" locationCode="10" channelCode="HHZ"/>
      <filterID>BW(4,2.5,15)</filterID>
      <methodID>AIC</methodID>
      <phaseHint>P</phaseHint>
      <evaluationMode>automatic</evaluationMode>
      <creationInfo>
        <agencyID>WEL(GNS_Test)</agencyID>
        <author>scautopick@eceqp02.geonet.org.nz</author>
        <creationTime>2018-08-22T21:54:26.833121Z</creationTime>
      </creationInfo>
    </pick>
    <pick publicID="20180822.215408.26-AIC-NZ.LTZ.10.HHZ">
      <time>
        <value>2018-08-22T21:54:08.268394Z</value>
      </time>
      <waveformID networkCode="NZ" stationCode="LTZ" locationCode="10" channelCode="HHZ"/>
      <filterID>BW(4,2.5,15)</filterID>
      <methodID>AIC</methodID>
      <phaseHint>P</phaseHint>
      <evaluationMode>automatic</evaluationMode>
      <creationInfo>
        <agencyID>WEL(GNS_Test)</agencyID>
        <author>scautopick@eceqp02.geonet.org.nz</author>
        <creationTime>2018-08-22T21:54:28.337291Z</creationTime>
      </creationInfo>
    </pick>
    <amplitude publicID="Amplitude/20180822215428.081906.1218197">
      <type>ML</type>
      <amplitude>
        <value>0.5212367578</value>
        <lowerUncertainty>0.05766345234</lowerUncertainty>
        <upperUncertainty>0.05766345234</upperUncertainty>
      </amplitude>
      <timeWindow>
        <reference>2018-08-22T21:53:46.485005Z</reference>
        <begin>-9.174999</begin>
        <end>33.025</end>
      </timeWindow>
      <pickID>20180822.215342.31-AIC-NZ.BSWZ.10.EHZ</pickID>
      <waveformID networkCode="NZ" stationCode="BSWZ" locationCode="10" channelCode="EH"/>
      <creationInfo>
        <agencyID>WEL(GNS_Test)</agencyID>
        <author>scamp@eceqp02.geonet.org.nz</author>
        <creationTime>2018-08-22T21:54:28.081969Z</creationTime>
      </creationInfo>
    </amplitude>
    <amplitude publicID="Amplitude/20180822215423.070285.1218196">
      <type>MLv</type>
      <amplitude>
        <value>0.3623105677</value>
      </amplitude>
      <timeWindow>
        <reference>2018-08-22T21:53:46.290005Z</reference>
        <begin>-8.98</begin>
        <end>33.22</end>
      </timeWindow>
      <snr>9.949899535</snr>
      <pickID>20180822.215342.31-AIC-NZ.BSWZ.10.EHZ</pickID>
      <waveformID networkCode="NZ" stationCode="BSWZ" locationCode="10" channelCode="EHZ"/>
      <creationInfo>
        <agencyID>WEL(GNS_Test)</agencyID>
        <author>scamp@eceqp02.geonet.org.nz</author>
        <creationTime>2018-08-22T21:54:23.070352Z</creationTime>
      </creationInfo>
    </amplitude>
    <amplitude publicID="Amplitude/20180822215419.063244.1218194">
      <type>ML</type>
      <amplitude>
        <value>1.646733014</value>
        <lowerUncertainty>0.4815334108</lowerUncertainty>
        <upperUncertainty>0.4815334108</upperUncertainty>
      </amplitude>
      <timeWindow>
        <reference>2018-08-22T21:53:46.420005Z</reference>
        <begin>-10.819999</begin>
        <end>26.81</end>
      </timeWindow>
      <pickID>20180822.215340.60-AIC-NZ.CMWZ.10.EHZ</pickID>
      <waveformID networkCode="NZ" stationCode="CMWZ" locationCode="10" channelCode="EH"/>
      <creationInfo>
        <agencyID>WEL(GNS_Test)</agencyID>
        <author>scamp@eceqp02.geonet.org.nz</author>
        <creationTime>2018-08-22T21:54:19.06331Z</creationTime>
      </creationInfo>
    </amplitude>
    <amplitude publicID="Amplitude/20180822215420.064927.1218195">
      <type>MLv</type>
      <amplitude>
        <value>1.188343912</value>
      </amplitude>
      <timeWindow>
        <reference>2018-08-22T21:53:46.930005Z</reference>
        <begin>-11.33</begin>
        <end>26.3</end>
      </timeWindow>
      <snr>7.984246272</snr>
      <pickID>20180822.215340.60-AIC-NZ.CMWZ.10.EHZ</pickID>
      <waveformID networkCode="NZ" stationCode="CMWZ" locationCode="10" channelCode="EHZ"/>
      <creationInfo>
        <agencyID>WEL(GNS_Test)</agencyID>
        <author>scamp@eceqp02.geonet.org.nz</author>
        <creationTime>2018-08-22T21:54:20.064998Z</creationTime>
      </creationInfo>
    </amplitude>
    <amplitude publicID="Amplitude/20180822215442.105237.1218201">
      <type>ML</type>
      <amplitude>
        <value>0.5161471608</value>
        <lowerUncertainty>0.112509741</lowerUncertainty>
        <upperUncertainty>0.112509741</upperUncertainty>
      </amplitude>
      <timeWindow>
        <reference>2018-08-22T21:53:56.328394Z</reference>
        <begin>-13.439999</begin>
        <end>40.44</end>
      </timeWindow>
      <pickID>20180822.215347.88-AIC-NZ.TCW.10.EHZ</pickID>
      <waveformID networkCode="NZ" stationCode="TCW" locationCode="10" channelCode="EH"/>
      <creationInfo>
        <agencyID>WEL(GNS_Test)</agencyID>
        <author>scamp@eceqp02.geonet.org.nz</author>
        <creationTime>2018-08-22T21:54:42.105318Z</creationTime>
      </creationInfo>
    </amplitude>
    <amplitude publicID="Amplitude/20180822215440.101309.1218200">
      <type>MLv</type>
      <amplitude>
        <value>0.2386334839</value>
      </amplitude>
      <timeWindow>
        <reference>2018-08-22T21:53:56.288394Z</reference>
        <begin>-13.4</begin>
        <end>40.48</end>
      </timeWindow>
      <snr>7.273648475</snr>
      <pickID>20180822.215347.88-AIC-NZ.TCW.10.EHZ</pickID>
      <waveformID networkCode="NZ" stationCode="TCW" locationCode="10" channelCode="EHZ"/>
      <creationInfo>
        <agencyID>WEL(GNS_Test)</agencyID>
        <author>scamp@eceqp02.geonet.org.nz</author>
        <creationTime>2018-08-22T21:54:40.101377Z</creationTime>
      </creationInfo>
    </amplitude>
    <amplitude publicID="Amplitude/20180822215435.091535.1218199">
      <type>ML</type>
      <amplitude>
        <value>0.2942221744</value>
        <lowerUncertainty>0.05756135458</lowerUncertainty>
        <upperUncertainty>0.05756135458</upperUncertainty>
      </amplitude>
      <timeWindow>
        <reference>2018-08-22T21:53:51.985Z</reference>
        <begin>-11.284999</begin>
        <end>35.365</end>
      </timeWindow>
      <pickID>20180822.215345.70-AIC-NZ.TUWZ.10.EHZ</pickID>
      <waveformID networkCode="NZ" stationCode="TUWZ" locationCode="10" channelCode="EH"/>
      <creationInfo>
        <agencyID>WEL(GNS_Test)</agencyID>
        <author>scamp@eceqp02.geonet.org.nz</author>
        <creationTime>2018-08-22T21:54:35.091613Z</creationTime>
      </creationInfo>
    </amplitude>
    <amplitude publicID="Amplitude/20180822215431.084895.1218198">
      <type>MLv</type>
      <amplitude>
        <value>0.1512220643</value>
      </amplitude>
      <timeWindow>
        <reference>2018-08-22T21:53:45.73Z</reference>
        <begin>-5.03</begin>
        <end>41.62</end>
      </timeWindow>
      <snr>5.142586418</snr>
      <pickID>20180822.215345.70-AIC-NZ.TUWZ.10.EHZ</pickID>
      <waveformID networkCode="NZ" stationCode="TUWZ" locationCode="10" channelCode="EHZ"/>
      <creationInfo>
        <agencyID>WEL(GNS_Test)</agencyID>
        <author>scamp@eceqp02.geonet.org.nz</author>
        <creationTime>2018-08-22T21:54:31.084963Z</creationTime>
      </creationInfo>
    </amplitude>
    <amplitude publicID="Amplitude/20180822215457.129985.1218203">
      <type>MLv</type>
      <amplitude>
        <value>0.06175326296</value>
      </amplitude>
      <timeWindow>
        <reference>2018-08-22T21:53:56.178393Z</reference>
        <begin>-7.04</begin>
        <end>59.39</end>
      </timeWindow>
      <snr>2.077322368</snr>
      <pickID>20180822.215354.13-AIC-NZ.PLWZ.10.EHZ</pickID>
      <waveformID networkCode="NZ" stationCode="PLWZ" locationCode="10" channelCode="EHZ"/>
      <creationInfo>
