<?xml version="1.0" encoding="UTF-8"?>
<seiscomp xmlns="http://geofon.gfz-potsdam.de/ns/seiscomp3-schema/0.11" version="0.11">
  <EventParameters>
    <pick publicID="20180806.071406.50-AIC-NZ.CMWZ.10.EHZ">
      <time>
        <value>2018-08-06T07:14:06.509999Z</value>
      </time>
      <waveformID networkCode="NZ" stationCode="CMWZ" locationCode="10" channelCode="EHZ"/>
      <filterID>BW(4,2.5,15)</filterID>
      <methodID>AIC</methodID>
      <phaseHint>P</phaseHint>
      <evaluationMode>automatic</evaluationMode>
      <creationInfo>
        <agencyID>WEL(GNS_Test)</agencyID>
        <author>scautopick@eceqp02.geonet.org.nz</author>
        <creationTime>2018-08-06T07:14:18.019042Z</creationTime>
      </creationInfo>
    </pick>
    <pick publicID="20180806.071408.03-AIC-NZ.BSWZ.10.EHZ">
      <time>
        <value>2018-08-06T07:14:08.030001Z</value>
      </time>
      <waveformID networkCode="NZ" stationCode="BSWZ" locationCode="10" channelCode="EHZ"/>
      <filterID>BW(4,2.5,15)</filterID>
      <methodID>AIC</methodID>
      <phaseHint>P</phaseHint>
      <evaluationMode>automatic</evaluationMode>
      <creationInfo>
        <agencyID>WEL(GNS_Test)</agencyID>
        <author>scautopick@eceqp02.geonet.org.nz</author>
        <creationTime>2018-08-06T07:14:21.026971Z</creationTime>
      </creationInfo>
    </pick>
    <pick publicID="20180806.071410.67-AIC-NZ.TUWZ.10.EHZ">
      <time>
        <value>2018-08-06T07:14:10.679997Z</value>
      </time>
      <waveformID networkCode="NZ" stationCode="TUWZ" locationCode="10" channelCode="EHZ"/>
      <filterID>BW(4,2.5,15)</filterID>
      <methodID>AIC</methodID>
      <phaseHint>P</phaseHint>
      <evaluationMode>automatic</evaluationMode>
      <creationInfo>
        <agencyID>WEL(GNS_Test)</agencyID>
        <author>scautopick@eceqp02.geonet.org.nz</author>
        <creationTime>2018-08-06T07:14:24.040962Z</creationTime>
      </creationInfo>
    </pick>
    <pick publicID="20180806.071413.68-AIC-NZ.TCW.10.EHZ">
      <time>
        <value>2018-08-06T07:14:13.688386Z</value>
      </time>
      <waveformID networkCode="NZ" stationCode="TCW" locationCode="10" channelCode="EHZ"/>
      <filterID>BW(4,2.5,15)</filterID>
      <methodID>AIC</methodID>
      <phaseHint>P</phaseHint>
      <evaluationMode>automatic</evaluationMode>
      <creationInfo>
        <agencyID>WEL(GNS_Test)</agencyID>
        <author>scautopick@eceqp02.geonet.org.nz</author>
        <creationTime>2018-08-06T07:14:24.036154Z</creationTime>
      </creationInfo>
    </pick>
    <pick publicID="20180806.071416.18-AIC-NZ.BHW.10.HHZ">
      <time>
        <value>2018-08-06T07:14:16.188394Z</value>
      </time>
      <waveformID networkCode="NZ" stationCode="BHW" locationCode="10" channelCode="HHZ"/>
      <filterID>BW(4,2.5,15)</filterID>
      <methodID>AIC</methodID>
      <phaseHint>P</phaseHint>
      <evaluationMode>automatic</evaluationMode>
      <creationInfo>
        <agencyID>WEL(GNS_Test)</agencyID>
        <author>scautopick@eceqp02.geonet.org.nz</author>
        <creationTime>2018-08-06T07:14:34.070479Z</creationTime>
      </creationInfo>
    </pick>
    <pick publicID="20180806.071418.01-AIC-NZ.NNZ.10.HHZ">
      <time>
        <value>2018-08-06T07:14:18.018383Z</value>
      </time>
      <waveformID networkCode="NZ" stationCode="NNZ" locationCode="10" channelCode="HHZ"/>
      <filterID>BW(4,2.5,15)</filterID>
      <methodID>AIC</methodID>
      <phaseHint>P</phaseHint>
      <evaluationMode>automatic</evaluationMode>
      <creationInfo>
        <agencyID>WEL(GNS_Test)</agencyID>
        <author>scautopick@eceqp02.geonet.org.nz</author>
        <creationTime>2018-08-06T07:14:30.553432Z</creationTime>
      </creationInfo>
    </pick>
    <pick publicID="20180806.071419.78-AIC-NZ.KHZ.10.HHZ">
      <time>
        <value>2018-08-06T07:14:19.788391Z</value>
      </time>
      <waveformID networkCode="NZ" stationCode="KHZ" locationCode="10" channelCode="HHZ"/>
      <filterID>BW(4,2.5,15)</filterID>
      <methodID>AIC</methodID>
      <phaseHint>P</phaseHint>
      <evaluationMode>automatic</evaluationMode>
      <creationInfo>
        <agencyID>WEL(GNS_Test)</agencyID>
        <author>scautopick@eceqp02.geonet.org.nz</author>
        <creationTime>2018-08-06T07:14:33.565197Z</creationTime>
      </creationInfo>
    </pick>
    <pick publicID="20180806.071420.87-AIC-NZ.MSWZ.10.EHZ">
      <time>
        <value>2018-08-06T07:14:20.873144Z</value>
      </time>
      <waveformID networkCode="NZ" stationCode="MSWZ" locationCode="10" channelCode="EHZ"/>
      <filterID>BW(4,2.5,15)</filterID>
      <methodID>AIC</methodID>
      <phaseHint>P</phaseHint>
      <evaluationMode>automatic</evaluationMode>
      <creationInfo>
        <agencyID>WEL(GNS_Test)</agencyID>
        <author>scautopick@eceqp02.geonet.org.nz</author>
        <creationTime>2018-08-06T07:14:33.061978Z</creationTime>
      </creationInfo>
    </pick>
    <pick publicID="20180806.071420.01-AIC-NZ.THZ.10.HHZ">
      <time>
        <value>2018-08-06T07:14:20.01313Z</value>
      </time>
      <waveformID networkCode="NZ" stationCode="THZ" locationCode="10" channelCode="HHZ"/>
      <filterID>BW(4,2.5,15)</filterID>
      <methodID>AIC</methodID>
      <phaseHint>P</phaseHint>
      <evaluationMode>automatic</evaluationMode>
      <creationInfo>
        <agencyID>WEL(GNS_Test)</agencyID>
        <author>scautopick@eceqp02.geonet.org.nz</author>
        <creationTime>2018-08-06T07:14:34.065372Z</creationTime>
      </creationInfo>
    </pick>
    <pick publicID="20180806.071421.08-AIC-NZ.DUWZ.10.EHZ">
      <time>
        <value>2018-08-06T07:14:21.088388Z</value>
      </time>
      <waveformID networkCode="NZ" stationCode="DUWZ" locationCode="10" channelCode="EHZ"/>
      <filterID>BW(4,2.5,15)</filterID>
      <methodID>AIC</methodID>
      <phaseHint>P</phaseHint>
      <evaluationMode>automatic</evaluationMode>
      <creationInfo>
        <agencyID>WEL(GNS_Test)</agencyID>
        <author>scautopick@eceqp02.geonet.org.nz</author>
        <creationTime>2018-08-06T07:14:32.059518Z</creationTime>
      </creationInfo>
    </pick>
    <pick publicID="20180806.071421.39-AIC-NZ.CAW.10.EHZ">
      <time>
        <value>2018-08-06T07:14:21.398391Z</value>
      </time>
      <waveformID networkCode="NZ" stationCode="CAW" locationCode="10" channelCode="EHZ"/>
      <filterID>BW(4,2.5,15)</filterID>
      <methodID>AIC</methodID>
      <phaseHint>P</phaseHint>
      <evaluationMode>automatic</evaluationMode>
      <creationInfo>
        <agencyID>WEL(GNS_Test)</agencyID>
        <author>scautopick@eceqp02.geonet.org.nz</author>
        <creationTime>2018-08-06T07:14:35.068131Z</creationTime>
      </creationInfo>
    </pick>
    <pick publicID="20180806.071423.21-AIC-NZ.KIW.10.EHZ">
      <time>
        <value>2018-08-06T07:14:23.218393Z</value>
      </time>
      <waveformID networkCode="NZ" stationCode="KIW" locationCode="10" channelCode="EHZ"/>
      <filterID>BW(4,2.5,15)</filterID>
      <methodID>AIC</methodID>
      <phaseHint>P</phaseHint>
      <evaluationMode>automatic</evaluationMode>
      <creationInfo>
        <agencyID>WEL(GNS_Test)</agencyID>
        <author>scautopick@eceqp02.geonet.org.nz</author>
        <creationTime>2018-08-06T07:14:35.072232Z</creationTime>
      </creationInfo>
    </pick>
    <pick publicID="20180806.071424.28-AIC-NZ.MRNZ.10.EHZ">
      <time>
        <value>2018-08-06T07:14:24.282948Z</value>
      </time>
      <waveformID networkCode="NZ" stationCode="MRNZ" locationCode="10" channelCode="EHZ"/>
      <filterID>BW(4,2.5,15)</filterID>
      <methodID>AIC</methodID>
      <phaseHint>P</phaseHint>
      <evaluationMode>automatic</evaluationMode>
      <creationInfo>
        <agencyID>WEL(GNS_Test)</agencyID>
        <author>scautopick@eceqp02.geonet.org.nz</author>
        <creationTime>2018-08-06T07:14:35.081245Z</creationTime>
      </creationInfo>
    </pick>
    <pick publicID="20180806.071424.46-AIC-NZ.MTW.10.EHZ">
      <time>
        <value>2018-08-06T07:14:24.468391Z</value>
      </time>
      <waveformID networkCode="NZ" stationCode="MTW" locationCode="10" channelCode="EHZ"/>
      <filterID>BW(4,2.5,15)</filterID>
      <methodID>AIC</methodID>
      <phaseHint>P</phaseHint>
      <evaluationMode>automatic</evaluationMode>
      <creationInfo>
        <agencyID>WEL(GNS_Test)</agencyID>
        <author>scautopick@eceqp02.geonet.org.nz</author>
        <creationTime>2018-08-06T07:14:39.079674Z</creationTime>
      </creationInfo>
    </pick>
    <pick publicID="20180806.071425.55-AIC-NZ.OGWZ.10.EHZ">
      <time>
        <value>2018-08-06T07:14:25.558378Z</value>
      </time>
      <waveformID networkCode="NZ" stationCode="OGWZ" locationCode="10" channelCode="EHZ"/>
      <filterID>BW(4,2.5,15)</filterID>
      <methodID>AIC</methodID>
      <phaseHint>P</phaseHint>
      <evaluationMode>automatic</evaluationMode>
      <creationInfo>
        <agencyID>WEL(GNS_Test)</agencyID>
        <author>scautopick@eceqp02.geonet.org.nz</author>
        <creationTime>2018-08-06T07:14:38.075809Z</creationTime>
      </creationInfo>
    </pick>
    <pick publicID="20180806.071429.61-AIC-NZ.MRZ.10.HHZ">
      <time>
        <value>2018-08-06T07:14:29.618393Z</value>
      </time>
      <waveformID networkCode="NZ" stationCode="MRZ" locationCode="10" channelCode="HHZ"/>
      <filterID>BW(4,2.5,15)</filterID>
      <methodID>AIC</methodID>
      <phaseHint>P</phaseHint>
      <evaluationMode>automatic</evaluationMode>
      <creationInfo>
        <agencyID>WEL(GNS_Test)</agencyID>
        <author>scautopick@eceqp02.geonet.org.nz</author>
        <creationTime>2018-08-06T07:14:45.598105Z</creationTime>
      </creationInfo>
    </pick>
    <amplitude publicID="Amplitude/20180806071452.156878.290173">
      <type>ML</type>
      <amplitude>
        <value>0.233829942</value>
        <lowerUncertainty>0.05107219824</lowerUncertainty>
        <upperUncertainty>0.05107219824</upperUncertainty>
      </amplitude>
      <timeWindow>
        <reference>2018-08-06T07:14:12.385001Z</reference>
        <begin>-9.354999</begin>
        <end>32.035</end>
      </timeWindow>
      <pickID>20180806.071408.03-AIC-NZ.BSWZ.10.EHZ</pickID>
      <waveformID networkCode="NZ" stationCode="BSWZ" locationCode="10" channelCode="EH"/>
      <creationInfo>
        <agencyID>WEL(GNS_Test)</agencyID>
        <author>scamp@eceqp02.geonet.org.nz</author>
        <creationTime>2018-08-06T07:14:52.156948Z</creationTime>
      </creationInfo>
    </amplitude>
    <amplitude publicID="Amplitude/20180806071449.150969.290172">
      <type>MLv</type>
      <amplitude>
        <value>0.1633800688</value>
      </amplitude>
      <timeWindow>
        <reference>2018-08-06T07:14:12.260001Z</reference>
        <begin>-9.23</begin>
        <end>32.16</end>
      </timeWindow>
      <snr>3.794683767</snr>
      <pickID>20180806.071408.03-AIC-NZ.BSWZ.10.EHZ</pickID>
      <waveformID networkCode="NZ" stationCode="BSWZ" locationCode="10" channelCode="EHZ"/>
      <creationInfo>
        <agencyID>WEL(GNS_Test)</agencyID>
        <author>scamp@eceqp02.geonet.org.nz</author>
        <creationTime>2018-08-06T07:14:49.151037Z</creationTime>
      </creationInfo>
    </amplitude>
    <amplitude publicID="Amplitude/20180806071447.148117.290171">
      <type>ML</type>
      <amplitude>
        <value>1.095520867</value>
        <lowerUncertainty>0.1045964456</lowerUncertainty>
        <upperUncertainty>0.1045964456</upperUncertainty>
      </amplitude>
      <timeWindow>
        <reference>2018-08-06T07:14:12.499999Z</reference>
        <begin>-10.989999</begin>
        <end>27.33</end>
      </timeWindow>
      <pickID>20180806.071406.50-AIC-NZ.CMWZ.10.EHZ</pickID>
      <waveformID networkCode="NZ" stationCode="CMWZ" locationCode="10" channelCode="EH"/>
      <creationInfo>
        <agencyID>WEL(GNS_Test)</agencyID>
        <author>scamp@eceqp02.geonet.org.nz</author>
        <creationTime>2018-08-06T07:14:47.148168Z</creationTime>
      </creationInfo>
    </amplitude>
    <amplitude publicID="Amplitude/20180806071445.645541.290170">
      <type>MLv</type>
      <amplitude>
        <value>0.5690693048</value>
      </amplitude>
      <timeWindow>
        <reference>2018-08-06T07:14:09.779999Z</reference>
        <begin>-8.27</begin>
        <end>30.05</end>
      </timeWindow>
      <snr>3.663993954</snr>
      <pickID>20180806.071406.50-AIC-NZ.CMWZ.10.EHZ</pickID>
      <waveformID networkCode="NZ" stationCode="CMWZ" locationCode="10" channelCode="EHZ"/>
      <creationInfo>
        <agencyID>WEL(GNS_Test)</agencyID>
        <author>scamp@eceqp02.geonet.org.nz</author>
        <creationTime>2018-08-06T07:14:45.645591Z</creationTime>
      </creationInfo>
    </amplitude>
    <amplitude publicID="Amplitude/20180806071505.178291.290177">
      <type>ML</type>
      <amplitude>
        <value>0.3371373216</value>
        <lowerUncertainty>0.09142350159</lowerUncertainty>
        <upperUncertainty>0.09142350159</upperUncertainty>
      </amplitude>
      <timeWindow>
        <reference>2018-08-06T07:14:22.463386Z</reference>
        <begin>-13.774999</begin>
        <end>40.285</end>
      </timeWindow>
      <pickID>20180806.071413.68-AIC-NZ.TCW.10.EHZ</pickID>
      <waveformID networkCode="NZ" stationCode="TCW" locationCode="10" channelCode="EH"/>
      <creationInfo>
        <agencyID>WEL(GNS_Test)</agencyID>
        <author>scamp@eceqp02.geonet.org.nz</author>
        <creationTime>2018-08-06T07:15:05.178337Z</creationTime>
      </creationInfo>
    </amplitude>
    <amplitude publicID="Amplitude/20180806071505.175835.290176">
      <type>MLv</type>
      <amplitude>
        <value>0.108846056</value>
      </amplitude>
      <timeWindow>
        <reference>2018-08-06T07:14:22.028386Z</reference>
        <begin>-13.34</begin>
        <end>40.72</end>
      </timeWindow>
      <snr>2.734425306</snr>
      <pickID>20180806.071413.68-AIC-NZ.TCW.10.EHZ</pickID>
      <waveformID networkCode="NZ" stationCode="TCW" locationCode="10" channelCode="EHZ"/>
      <creationInfo>
        <agencyID>WEL(GNS_Test)</agencyID>
        <author>scamp@eceqp02.geonet.org.nz</author>
        <creationTime>2018-08-06T07:15:05.175919Z</creationTime>
      </creationInfo>
    </amplitude>
    <amplitude publicID="Amplitude/20180806071500.168235.290175">
      <type>ML</type>
      <amplitude>
        <value>0.3380594019</value>
        <lowerUncertainty>0.0642398381</lowerUncertainty>
        <upperUncertainty>0.0642398381</upperUncertainty>
      </amplitude>
      <timeWindow>
        <reference>2018-08-06T07:14:16.364997Z</reference>
        <begin>-10.684999</begin>
        <end>35.615</end>
      </timeWindow>
      <pickID>20180806.071410.67-AIC-NZ.TUWZ.10.EHZ</pickID>
      <waveformID networkCode="NZ" stationCode="TUWZ" locationCode="10" channelCode="EH"/>
      <creationInfo>
        <agencyID>WEL(GNS_Test)</agencyID>
        <author>scamp@eceqp02.geonet.org.nz</author>
        <creationTime>2018-08-06T07:15:00.168287Z</creationTime>
      </creationInfo>
    </amplitude>
    <amplitude publicID="Amplitude/20180806071459.667157.290174">
      <type>MLv</type>
      <amplitude>
        <value>0.1022992251</value>
      </amplitude>
      <timeWindow>
        <reference>2018-08-06T07:14:16.729997Z</reference>
        <begin>-11.05</begin>
        <end>35.25</end>
      </timeWindow>
      <snr>3.850441777</snr>
      <pickID>20180806.071410.67-AIC-NZ.TUWZ.10.EHZ</pickID>
      <waveformID networkCode="NZ" stationCode="TUWZ" locationCode="10" channelCode="EHZ"/>
      <creationInfo>
        <agencyID>WEL(GNS_Test)</agencyID>
        <author>scamp@eceqp02.geonet.org.nz</author>
        <creationTime>2018-08-06T07:14:59.667212Z</creationTime>
      </creationInfo>
    </amplitude>
    <amplitude publicID="Amplitude/20180806071519.199901.290178">
      <type>ML</type>
      <amplitude>
        <value>0.2070314743</value>
        <lowerUncertainty>0.002415829128</lowerUncertainty>
        <upperUncertainty>0.002415829128</upperUncertainty>
      </amplitude>
      <timeWindow>
        <reference>2018-08-06T07:14:35.078394Z</reference>
        <begin>-23.889999</begin>
        <end>35.06</end>
      </timeWindow>
      <pickID>20180806.071416.18-AIC-NZ.BHW.10.HHZ</pickID>
      <waveformID networkCode="NZ" stationCode="BHW" locationCode="10" channelCode="HH"/>
      <creationInfo>
        <agencyID>WEL(GNS_Test)</agencyID>
        <author>scamp@eceqp02.geonet.org.nz</author>
        <creationTime>2018-08-06T07:15:19.199962Z</creationTime>
      </creationInfo>
    </amplitude>
    <amplitude publicID="Amplitude/20180806071519.700744.290181">
      <type>ML</type>
      <amplitude>
        <value>0.2403625833</value>
        <lowerUncertainty>0.003565530185</lowerUncertainty>
        <upperUncertainty>0.003565530185</upperUncertainty>
      </amplitude>
      <timeWindow>
        <reference>2018-08-06T07:14:53.263382Z</reference>
        <begin>-40.244999</begin>
        <end>21.955</end>
      </timeWindow>
      <pickID>20180806.071418.01-AIC-NZ.NNZ.10.HHZ</pickID>
      <waveformID networkCode="NZ" stationCode="NNZ" locationCode="10" channelCode="HH"/>
      <creationInfo>
        <agencyID>WEL(GNS_Test)</agencyID>
        <author>scamp@eceqp02.geonet.org.nz</author>
        <creationTime>2018-08-06T07:15:19.700779Z</creationTime>
      </creationInfo>
    </amplitude>
    <amplitude publicID="Amplitude/20180806071524.206282.290182">
      <type>ML</type>
      <amplitude>
        <value>0.3352913318</value>
        <lowerUncertainty>0.005854211796</lowerUncertainty>
        <upperUncertainty>0.005854211796</upperUncertainty>
      </amplitude>
      <timeWindow>
        <reference>2018-08-06T07:14:40.638391Z</reference>
        <begin>-25.849999</begin>
        <end>39.67</end>
      </timeWindow>
      <pickID>20180806.071419.78-AIC-NZ.KHZ.10.HHZ</pickID>
      <waveformID networkCode="NZ" stationCode="KHZ" locationCode="10" channelCode="HH"/>
      <creationInfo>
        <agencyID>WEL(GNS_Test)</agencyID>
        <author>scamp@eceqp02.geonet.org.nz</author>
        <creationTime>2018-08-06T07:15:24.206337Z</creationTime>
      </creationInfo>
    </amplitude>
    <amplitude publicID="Amplitude/20180806071527.214699.290185">
      <type>ML</type>
      <amplitude>
        <value>0.1300710715</value>
        <lowerUncertainty>0.01732415877</lowerUncertainty>
        <upperUncertainty>0.01732415877</upperUncertainty>
      </amplitude>
      <timeWindow>
        <reference>2018-08-06T07:14:58.413389Z</reference>
        <begin>-42.324999</begin>
        <end>26.685</end>
      </timeWindow>
      <pickID>20180806.071421.08-AIC-NZ.DUWZ.10.EHZ</pickID>
      <waveformID networkCode="NZ" stationCode="DUWZ" locationCode="10" channelCode="EH"/>
      <creationInfo>
        <agencyID>WEL(GNS_Test)</agencyID>
        <author>scamp@eceqp02.geonet.org.nz</author>
        <creationTime>2018-08-06T07:15:27.214732Z</creationTime>
      </creationInfo>
    </amplitude>
    <amplitude publicID="Amplitude/20180806071531.219263.290187">
      <type>ML</type>
      <amplitude>
        <value>0.08892766494</value>
        <lowerUncertainty>0.004607066891</lowerUncertainty>
        <upperUncertainty>0.004607066891</upperUncertainty>
      </amplitude>
      <timeWindow>
        <reference>2018-08-06T07:14:45.863144Z</reference>
        <begin>-29.989999</begin>
        <end>38.51</end>
      </timeWindow>
      <pickID>20180806.071420.87-AIC-NZ.MSWZ.10.EHZ</pickID>
      <waveformID networkCode="NZ" stationCode="MSWZ" locationCode="10" channelCode="EH"/>
      <creationInfo>
        <agencyID>WEL(GNS_Test)</agencyID>
        <author>scamp@eceqp02.geonet.org.nz</author>
        <creationTime>2018-08-06T07:15:31.2193Z</creationTime>
      </creationInfo>
    </amplitude>
    <amplitude publicID="Amplitude/20180806071534.222061.290188">
      <type>ML</type>
